ORBCOMM-X               
1 21576U 91050C   24163.45968032  .00000730  00000+0  23305-3 0  9994
2 21576  98.3896 230.7764 0002967 208.9661 151.1364 14.42548136728658
ORBCOMM FM01            
1 23545U 95017A   24163.60039572  .00010913  00000+0  14289-2 0  9998
2 23545  69.9675 271.6503 0006005 195.3815 164.7153 14.80562676557470
ORBCOMM FM02            
1 23546U 95017B   24163.57001690  .00009990  00000+0  13207-2 0  9997
2 23546  69.9697 291.2025 0007565 181.3535 178.7595 14.80184886557117
ORBCOMM FM08            
1 25112U 97084A   24163.45864896  .00003131  00000+0  97265-3 0  9994
2 25112  45.0159 343.5177 0008214 178.9163 181.1706 14.42774133387779
ORBCOMM FM10            
1 25113U 97084B   24163.46775523  .00002842  00000+0  88899-3 0  9995
2 25113  45.0171 345.3573 0005650 153.8390 206.2747 14.42667261562928
ORBCOMM FM11            
1 25114U 97084C   24163.55850813  .00003206  00000+0  99983-3 0  9993
2 25114  45.0158 345.0193 0006427 153.6436 206.4742 14.42542456387909
ORBCOMM FM12            
1 25115U 97084D   24163.44984263  .00003019  00000+0  94484-3 0  9992
2 25115  45.0165 345.2452 0005417 154.3545 205.7575 14.42506804387683
ORBCOMM FM09            
1 25116U 97084E   24162.90790869  .00003277  00000+0  10226-2 0  9997
2 25116  45.0168 348.5287 0006301 136.6897 223.4449 14.42465849387810
